NORAD_CAT_ID,OBJECT_NAME,OBJECT_TYPE,EPOCH,MEAN_MOTION,ECCENTRICITY,INCLINATION,RA_OF_ASC_NODE,ARG_OF_PERICENTER,MEAN_ANOMALY,BSTAR,MEAN_MOTION_DOT,MEAN_MOTION_DDOT,TLE_LINE0,TLE_LINE1,TLE_LINE2,SEMIMAJOR_AXIS,PERIOD,APOGEE,PERIGEE,DECAYED
51735.0,STARLINK-3517,PAYLOAD,2022-03-17 14:00:01,15.73218992,0.0001132,53.2192,20.8615,104.2795,245.2448,-0.00023733,-0.0003382,0.0,0 STARLINK-3517,1 51735U 22016X   22076.58334491 -.00033820  00000-0 -23733-3 0  9995,2 51735  53.2192  20.8615 0001132 104.2795 245.2448 15.73218992  5047,6727.840999999999,91.532,350.468,348.944,0.0
51735.0,STARLINK-3517,PAYLOAD,2022-03-17 22:00:00,15.73218595,0.0001279,53.2194,19.212,104.2084,334.2446,0.00024354,0.00033723,0.0,0 STARLINK-3517,1 51735U 22016X   22076.91667824  .00033723  00000-0  24354-3 0  9991,2 51735  53.2194  19.2120 0001279 104.2084 334.2446 15.73218595  3690,6727.842,91.532,350.5680000000001,348.847,0.0
51735.0,STARLINK-3517,PAYLOAD,2022-03-18 08:00:01,15.73247202,0.000109,53.2188,17.1519,93.4379,186.2228,-0.00050694,-0.00071306,0.0,0 STARLINK-3517,1 51735U 22016X   22077.33334491 -.00071306  00000-0 -50694-3 0  9996,2 51735  53.2188  17.1519 0001090  93.4379 186.2228 15.73247202  5163,6727.761,91.53,350.3590000000001,348.892,0.0
51735.0,STARLINK-3517,PAYLOAD,2022-03-18 14:00:01,15.73182049,0.0001183,53.219,15.9132,104.7096,151.6807,-1.5141e-05,-2.742e-05,0.0,0 STARLINK-3517,1 51735U 22016X   22077.58334491 -.00002742  00000-0 -15141-4 0  9990,2 51735  53.2190  15.9132 0001183 104.7096 151.6807 15.73182049  3713,6727.946,91.534,350.607,349.015,0.0
51735.0,STARLINK-3517,PAYLOAD,2022-03-18 22:00:00,15.73198351,0.0001255,53.2193,14.2641,108.218,237.0622,0.00014389,0.0001962,0.0,0 STARLINK-3517,1 51735U 22016X   22077.91667824  .00019620  00000-0  14389-3 0  9999,2 51735  53.2193  14.2641 0001255 108.2180 237.0622 15.73198351  5254,6727.9,91.533,350.6090000000001,348.921,0.0
51735.0,STARLINK-3517,PAYLOAD,2022-03-19 14:00:01,15.73206106,0.000106,53.2189,10.9652,109.0574,54.1169,-0.0003715,-0.00052445,0.0,0 STARLINK-3517,1 51735U 22016X   22078.58334491 -.00052445  00000-0 -37150-3 0  9999,2 51735  53.2189  10.9652 0001060 109.0574  54.1169 15.73206106  5368,6727.878000000002,91.533,350.456,349.03,0.0
51735.0,STARLINK-3517,PAYLOAD,2022-03-19 22:00:01,15.73177647,0.0001257,53.2184,9.3161,107.2583,144.8838,0.00015013,0.00020481,0.0,0 STARLINK-3517,1 51735U 22016X   22078.91668981  .00020481  00000-0  15013-3 0  9997,2 51735  53.2184   9.3161 0001257 107.2583 144.8838 15.73177647  3723,6727.959,91.534,350.67,348.978,0.0
51735.0,STARLINK-3517,PAYLOAD,2022-03-20 06:00:00,15.7317163,0.000118,53.2172,7.6685,95.8156,245.1761,0.00064984,0.00091467,0.0,0 STARLINK-3517,1 51735U 22016X   22079.25001157  .00091467  00000-0  64984-3 0  9994,2 51735  53.2172   7.6685 0001180  95.8156 245.1761 15.73171630  5464,6727.976,91.535,350.635,349.047,0.0
51735.0,STARLINK-3517,PAYLOAD,2022-03-20 14:00:01,15.73240275,0.0001240999999999,53.217,6.017,109.8491,320.0861,0.00011519,0.00015604,0.0,0 STARLINK-3517,1 51735U 22016X   22079.58334491  .00015604  00000-0  11519-3 0  9995,2 51735  53.2170   6.0170 0001241 109.8491 320.0861 15.73240275  3688,6727.78,91.531,350.48,348.81,0.0
51735.0,STARLINK-3517,PAYLOAD,2022-03-20 20:00:01,15.73260265,0.0001392,53.2171,4.7799,111.46,295.2151,-0.00012641,-0.00018368,0.0,0 STARLINK-3517,1 51735U 22016X   22079.83334491 -.00018368  00000-0 -12641-3 0  9992,2 51735  53.2171   4.7799 0001392 111.4600 295.2151 15.73260265  5553,6727.723000000001,91.53,350.525,348.652,0.0
51735.0,STARLINK-3517,PAYLOAD,2022-03-20 22:00:01,15.73242924,0.0001369,53.2171,4.368,108.2584,50.7368,8.72e-05,0.00011657,0.0,0 STARLINK-3517,1 51735U 22016X   22079.91668981  .00011657  00000-0  87200-4 0  9991,2 51735  53.2171   4.3680 0001369 108.2584  50.7368 15.73242924  3708,6727.773,91.531,350.559,348.717,0.0
51735.0,STARLINK-3517,PAYLOAD,2022-03-21 14:00:01,15.73219671,0.0001203,53.2171,1.0683,113.4488,223.4411,-0.00049977,-0.00070234,0.0,0 STARLINK-3517,1 51735U 22016X   22080.58334491 -.00070234  00000-0 -49977-3 0  9998,2 51735  53.2171   1.0683 0001203 113.4488 223.4411 15.73219671  3692,6727.839,91.532,350.51300000000015,348.895,0.0
51735.0,STARLINK-3517,PAYLOAD,2022-03-21 22:00:00,15.73162546,0.0001192,53.2173,359.4194,110.9766,314.8326,-5.4569e-05,-8.258e-05,0.0,0 STARLINK-3517,1 51735U 22016X   22080.91667824 -.00008258  00000-0 -54569-4 0  9995,2 51735  53.2173 359.4194 0001192 110.9766 314.8326 15.73162546  5723,6728.002,91.535,350.6690000000001,349.065,0.0
51735.0,STARLINK-3517,PAYLOAD,2022-03-22 14:00:01,15.73165523,0.0001062,53.2168,356.1199,115.875,127.6902,0.00058507,0.00082175,0.0,0 STARLINK-3517,1 51735U 22016X   22081.58334491  .00082175  00000-0  58507-3 0  9993,2 51735  53.2168 356.1199 0001062 115.8750 127.6902 15.73165523  5839,6727.993,91.535,350.5730000000001,349.144,0.0
51735.0,STARLINK-3517,PAYLOAD,2022-03-22 22:00:01,15.73249508,0.000111,53.2168,354.4713,112.8599,219.6923,-2.7946e-05,-4.548e-05,0.0,0 STARLINK-3517,1 51735U 22016X   22081.91668981 -.00004548  00000-0 -27946-4 0  9998,2 51735  53.2168 354.4713 0001110 112.8599 219.6923 15.73249508  3709,6727.754,91.53,350.366,348.872,0.0
51735.0,STARLINK-3517,PAYLOAD,2022-03-23 08:00:01,15.73244758,0.0001085,53.2166,352.41,106.7561,66.9517,-0.00032526,-0.00046104,0.0,0 STARLINK-3517,1 51735U 22016X   22082.33334491 -.00046104  00000-0 -32526-3 0  9994,2 51735  53.2166 352.4100 0001085 106.7561  66.9517 15.73244758  5950,6727.768,91.531,350.36300000000006,348.903,0.0
51735.0,STARLINK-3517,PAYLOAD,2022-03-23 14:00:01,15.73198266,0.0001054,53.2168,351.1711,119.6735,30.7743,0.00013464,0.00018316,0.0,0 STARLINK-3517,1 51735U 22016X   22082.58334491  .00018316  00000-0  13464-3 0  9993,2 51735  53.2168 351.1711 0001054 119.6735  30.7743 15.73198266  3699,6727.9,91.533,350.474,349.056,0.0
51735.0,STARLINK-3517,PAYLOAD,2022-03-23 22:00:00,15.7322142,0.0001058,53.2171,349.5226,113.679,125.6919,7.7495e-05,0.00010279,0.0,0 STARLINK-3517,1 51735U 22016X   22082.91667824  .00010279  00000-0  77495-4 0  9994,2 51735  53.2171 349.5226 0001058 113.6790 125.6919 15.73221420  6044,6727.834,91.532,350.411,348.987,0.0
51735.0,STARLINK-3517,PAYLOAD,2022-03-24 14:00:01,15.73186701,0.0001039,53.2167,346.2222,122.3798,294.9115,0.00016,0.00021881,0.0,0 STARLINK-3517,1 51735U 22016X   22083.58334491  .00021881  00000-0  16000-3 0  9994,2 51735  53.2167 346.2222 0001039 122.3798 294.9115 15.73186701  3680,6727.933000000001,91.534,350.497,349.099,0.0
51735.0,STARLINK-3517,PAYLOAD,2022-03-24 22:00:00,15.731956,9.45e-05,53.2168,344.5741,116.5148,29.6765,0.00014372,0.00019593,0.0,0 STARLINK-3517,1 51735U 22016X   22083.91667824  .00019593  00000-0  14372-3 0  9997,2 51735  53.2168 344.5741 0000945 116.5148  29.6765 15.73195600  3702,6727.908,91.533,350.409,349.13699999999994,0.0
51735.0,STARLINK-3517,PAYLOAD,2022-03-25 00:00:02,15.73194136,9.71e-05,53.2168,344.1623,111.7982,146.6907,0.00023964,0.00033136,0.0,0 STARLINK-3517,1 51735U 22016X   22084.00002315  .00033136  00000-0  23964-3 0  9992,2 51735  53.2168 344.1623 0000971 111.7982 146.6907 15.73194136  6219,6727.9119999999975,91.534,350.43,349.124,0.0
51735.0,STARLINK-3517,PAYLOAD,2022-03-25 14:00:01,15.73182339,9.55e-05,53.2169,341.2735,126.5959,197.5254,-9.1447e-06,-1.901e-05,0.0,0 STARLINK-3517,1 51735U 22016X   22084.58334491 -.00001901  00000-0 -91447-5 0  9998,2 51735  53.2169 341.2735 0000955 126.5959 197.5254 15.73182339  3693,6727.946,91.534,350.45300000000015,349.168,0.0
51735.0,STARLINK-3517,PAYLOAD,2022-03-25 20:00:01,15.73190433,9e-05,53.2173,340.0372,123.3031,177.4934,5.5503e-05,7.174e-05,0.0,0 STARLINK-3517,1 51735U 22016X   22084.83334491  .00007174  00000-0  55503-4 0  9994,2 51735  53.2173 340.0372 0000900 123.3031 177.4934 15.73190433  6349,6727.922,91.534,350.39300000000014,349.182,0.0
51735.0,STARLINK-3517,PAYLOAD,2022-03-25 22:00:01,15.73211835,8.56e-05,53.2174,339.6256,114.3273,298.7582,-0.00026729,-0.0003798,0.0,0 STARLINK-3517,1 51735U 22016X   22084.91668981 -.00037980  00000-0 -26729-3 0  9994,2 51735  53.2174 339.6256 0000856 114.3273 298.7582 15.73211835  3740,6727.861,91.532,350.302,349.151,0.0
51735.0,STARLINK-3517,PAYLOAD,2022-03-26 06:00:00,15.73165811,8.71e-05,53.2169,337.9765,106.4753,35.4589,0.00011636,0.00015718,0.0,0 STARLINK-3517,1 51735U 22016X   22085.25001157  .00015718  00000-0  11636-3 0  9992,2 51735  53.2169 337.9765 0000871 106.4753  35.4589 15.73165811  6414,6727.993,91.535,350.444,349.272,0.0
51735.0,STARLINK-3517,PAYLOAD,2022-03-26 14:00:01,15.731581599999998,0.0001006,53.2169,336.3252,121.6248,109.2126,0.00066695,0.00093864,0.0,0 STARLINK-3517,1 51735U 22016X   22085.58334491  .00093864  00000-0  66695-3 0  9991,2 51735  53.2169 336.3252 0001006 121.6248 109.2126 15.73158160  3678,6728.014,91.536,350.556,349.20300000000015,0.0
51735.0,STARLINK-3517,PAYLOAD,2022-03-26 22:00:00,15.73243258,0.0001076,53.2169,334.6775,110.5769,209.1765,-0.0006149,-0.00086194,0.0,0 STARLINK-3517,1 51735U 22016X   22085.91667824 -.00086194  00000-0 -61490-3 0  9995,2 51735  53.2169 334.6775 0001076 110.5769 209.1765 15.73243258  3729,6727.772,91.531,350.361,348.913,0.0
51735.0,STARLINK-3517,PAYLOAD,2022-03-27 14:00:01,15.72762441,0.0001367,53.217,331.3641,112.5574,25.1366,0.0046909,0.00702714,0.0,0 STARLINK-3517,1 51735U 22016X   22086.58334491  .00702714  00000-0  46909-2 0  9998,2 51735  53.2170 331.3641 0001367 112.5574  25.1366 15.72762441  6619,6729.143,91.559,351.92800000000005,350.088,0.0
51735.0,STARLINK-3517,PAYLOAD,2022-03-27 22:00:01,15.73252969,0.000123,53.2171,329.7291,107.0511,119.6,-0.00043243,-0.00061007,0.0,0 STARLINK-3517,1 51735U 22016X   22086.91668981 -.00061007  00000-0 -43243-3 0  9993,2 51735  53.2171 329.7291 0001230 107.0511 119.6000 15.73252969  3702,6727.744000000002,91.53,350.43699999999984,348.782,0.0
